{
  "type": "FeatureCollection",
  "features": [
    {
      "type": "Feature",
      "properties": {
        "norad_id": 41026,
        "name": "YAOGAN-28",
        "group": "resource",
        "lat": -4.191578681138181,
        "lon": -48.79879149574917,
        "alt_km": 494.7732296337799,
        "timestamp": "2025-12-20T03:42:47.049371+00:00",
        "meta_object_name": "YAOGAN-28",
        "meta_object_id": "2015-064A",
        "meta_epoch": "2025-12-19T20:36:28.397664",
        "meta_mean_motion": 15.24462378,
        "meta_eccentricity": 0.0012611,
        "meta_inclination": 97.2809,
        "meta_ra_of_asc_node": 131.4504,
        "meta_arg_of_pericenter": 103.3406,
        "meta_mean_anomaly": 256.9239,
        "meta_ephemeris_type": 0,
        "meta_classification_type": "U",
        "meta_norad_cat_id": 41026,
        "meta_element_set_no": 999,
        "meta_rev_at_epoch": 56333,
        "meta_bstar": 0.00024541,
        "meta_mean_motion_dot": 5.97e-05,
        "meta_mean_motion_ddot": 0,
        "tle_line1": "1 41026U 15064A   25353.85866201  .00005970  00000+0  24541-3 0  9992",
        "tle_line2": "2 41026  97.2809 131.4504 0012611 103.3406 256.9239 15.24462378563334"
      },
      "geometry": {
        "type": "Point",
        "coordinates": [
          -48.79879149574917,
          -4.191578681138181
        ]
      }
    },
    {
      "type": "Feature",
      "properties": {
        "norad_id": 41038,
        "name": "YAOGAN-29",
        "group": "resource",
        "lat": -72.11191671291365,
        "lon": 171.44421875255432,
        "alt_km": 627.446872345592,
        "timestamp": "2025-12-20T03:42:47.049381+00:00",
        "meta_object_name": "YAOGAN-29",
        "meta_object_id": "2015-069A",
        "meta_epoch": "2025-12-19T20:05:36.924288",
        "meta_mean_motion": 14.82890975,
        "meta_eccentricity": 4.57e-05,
        "meta_inclination": 98.0213,
        "meta_ra_of_asc_node": 17.0321,
        "meta_arg_of_pericenter": 176.6534,
        "meta_mean_anomaly": 183.4682,
        "meta_ephemeris_type": 0,
        "meta_classification_type": "U",
        "meta_norad_cat_id": 41038,
        "meta_element_set_no": 999,
        "meta_rev_at_epoch": 54404,
        "meta_bstar": 9.2048e-05,
        "meta_mean_motion_dot": 6.92e-06,
        "meta_mean_motion_ddot": 0,
        "tle_line1": "1 41038U 15069A   25353.83723292  .00000692  00000+0  92048-4 0  9994",
        "tle_line2": "2 41038  98.0213  17.0321 0000457 176.6534 183.4682 14.82890975544045"
      },
      "geometry": {
        "type": "Point",
        "coordinates": [
          171.44421875255432,
          -72.11191671291365
        ]
      }
    },
    {
      "type": "Feature",
      "properties": {
        "norad_id": 41167,
        "name": "KENT RIDGE 1",
        "group": "resource",
        "lat": -9.592731353951104,
        "lon": 15.330243572878835,
        "alt_km": 493.49198746740785,
        "timestamp": "2025-12-20T03:42:47.049391+00:00",
        "meta_object_name": "KENT RIDGE 1",
        "meta_object_id": "2015-077B",
        "meta_epoch": "2025-12-19T15:44:19.065408",
        "meta_mean_motion": 15.21687,
        "meta_eccentricity": 0.0008521,
        "meta_inclination": 14.9781,
        "meta_ra_of_asc_node": 159.8192,
        "meta_arg_of_pericenter": 228.6,
        "meta_mean_anomaly": 131.3589,
        "meta_ephemeris_type": 0,
        "meta_classification_type": "U",
        "meta_norad_cat_id": 41167,
        "meta_element_set_no": 999,
        "meta_rev_at_epoch": 55369,
        "meta_bstar": 0.00012437,
        "meta_mean_motion_dot": 3.652e-05,
        "meta_mean_motion_ddot": 0,
        "tle_line1": "1 41167U 15077B   25353.65577622  .00003652  00000+0  12437-3 0  9992",
        "tle_line2": "2 41167  14.9781 159.8192 0008521 228.6000 131.3589 15.21687000553698"
      },
      "geometry": {
        "type": "Point",
        "coordinates": [
          15.330243572878835,
          -9.592731353951104
        ]
      }
    },
    {
      "type": "Feature",
      "properties": {
        "norad_id": 41194,
        "name": "GAOFEN-4",
        "group": "resource",
        "lat": 0.01040697840336708,
        "lon": -109.57253342228283,
        "alt_km": 35782.61954151538,
        "timestamp": "2025-12-20T03:42:47.049404+00:00",
        "meta_object_name": "GAOFEN-4",
        "meta_object_id": "2015-083A",
        "meta_epoch": "2025-12-19T15:27:26.627616",
        "meta_mean_motion": 1.00273138,
        "meta_eccentricity": 0.0002945,
        "meta_inclination": 0.1878,
        "meta_ra_of_asc_node": 81.7841,
        "meta_arg_of_pericenter": 93.4275,
        "meta_mean_anomaly": 250.8523,
        "meta_ephemeris_type": 0,
        "meta_classification_type": "U",
        "meta_norad_cat_id": 41194,
        "meta_element_set_no": 999,
        "meta_rev_at_epoch": 3672,
        "meta_bstar": 0,
        "meta_mean_motion_dot": -3.11e-06,
        "meta_mean_motion_ddot": 0,
        "tle_line1": "1 41194U 15083A   25353.64405819 -.00000311  00000+0  00000+0 0  9995",
        "tle_line2": "2 41194   0.1878  81.7841 0002945  93.4275 250.8523  1.00273138 36722"
      },
      "geometry": {
        "type": "Point",
        "coordinates": [
          -109.57253342228283,
          0.01040697840336708
        ]
      }
    },
    {
      "type": "Feature",
      "properties": {
        "norad_id": 41240,
        "name": "JASON-3",
        "group": "resource",
        "lat": 52.410062856872365,
        "lon": -73.04640505140723,
        "alt_km": 1310.0110810798324,
        "timestamp": "2025-12-20T03:42:47.049415+00:00",
        "meta_object_name": "JASON-3",
        "meta_object_id": "2016-002A",
        "meta_epoch": "2025-12-19T19:38:10.434048",
        "meta_mean_motion": 12.87626874,
        "meta_eccentricity": 0.000721,
        "meta_inclination": 66.0398,
        "meta_ra_of_asc_node": 142.9424,
        "meta_arg_of_pericenter": 271.2282,
        "meta_mean_anomaly": 88.7911,
        "meta_ephemeris_type": 0,
        "meta_classification_type": "U",
        "meta_norad_cat_id": 41240,
        "meta_element_set_no": 999,
        "meta_rev_at_epoch": 46415,
        "meta_bstar": 9.6276e-06,
        "meta_mean_motion_dot": -6e-07,
        "meta_mean_motion_ddot": 0,
        "tle_line1": "1 41240U 16002A   25353.81817632 -.00000060  00000+0  96276-5 0  9995",
        "tle_line2": "2 41240  66.0398 142.9424 0007210 271.2282  88.7911 12.87626874464150"
      },
      "geometry": {
        "type": "Point",
        "coordinates": [
          -73.04640505140723,
          52.410062856872365
        ]
      }
    },
    {
      "type": "Feature",
      "properties": {
        "norad_id": 41335,
        "name": "SENTINEL-3A",
        "group": "resource",
        "lat": -74.11372348843555,
        "lon": -153.18956877731964,
        "alt_km": 810.5905052958178,
        "timestamp": "2025-12-20T03:42:47.049425+00:00",
        "meta_object_name": "SENTINEL-3A",
        "meta_object_id": "2016-011A",
        "meta_epoch": "2025-12-19T19:46:53.681088",
        "meta_mean_motion": 14.26733252,
        "meta_eccentricity": 9.08e-05,
        "meta_inclination": 98.6306,
        "meta_ra_of_asc_node": 58.7378,
        "meta_arg_of_pericenter": 93.4901,
        "meta_mean_anomaly": 266.6384,
        "meta_ephemeris_type": 0,
        "meta_classification_type": "U",
        "meta_norad_cat_id": 41335,
        "meta_element_set_no": 999,
        "meta_rev_at_epoch": 51248,
        "meta_bstar": 6.0011e-05,
        "meta_mean_motion_dot": 1.02e-06,
        "meta_mean_motion_ddot": 0,
        "tle_line1": "1 41335U 16011A   25353.82423242  .00000102  00000+0  60011-4 0  9994",
        "tle_line2": "2 41335  98.6306  58.7378 0000908  93.4901 266.6384 14.26733252512481"
      },
      "geometry": {
        "type": "Point",
        "coordinates": [
          -153.18956877731964,
          -74.11372348843555
        ]
      }
    },
    {
      "type": "Feature",
      "properties": {
        "norad_id": 41556,
        "name": "ZIYUAN 3-02 (ZY 3-02)",
        "group": "resource",
        "lat": 8.57870058416248,
        "lon": 67.07477094910732,
        "alt_km": 510.84244847144237,
        "timestamp": "2025-12-20T03:42:47.049436+00:00",
        "meta_object_name": "ZIYUAN 3-02 (ZY 3-02)",
        "meta_object_id": "2016-033A",
        "meta_epoch": "2025-12-19T21:21:36.087264",
        "meta_mean_motion": 15.211511,
        "meta_eccentricity": 0.0011005,
        "meta_inclination": 97.4041,
        "meta_ra_of_asc_node": 67.9386,
        "meta_arg_of_pericenter": 219.3639,
        "meta_mean_anomaly": 140.6798,
        "meta_ephemeris_type": 0,
        "meta_classification_type": "U",
        "meta_norad_cat_id": 41556,
        "meta_element_set_no": 999,
        "meta_rev_at_epoch": 53072,
        "meta_bstar": 0.0002426,
        "meta_mean_motion_dot": 5.342e-05,
        "meta_mean_motion_ddot": 0,
        "tle_line1": "1 41556U 16033A   25353.89000101  .00005342  00000+0  24260-3 0  9991",
        "tle_line2": "2 41556  97.4041  67.9386 0011005 219.3639 140.6798 15.21151100530726"
      },
      "geometry": {
        "type": "Point",
        "coordinates": [
          67.07477094910732,
          8.57870058416248
        ]
      }
    }
  ]
}